{"fetched_at":"2026-03-30T09:12:31Z","count":15922,"tles":[{"name":"STARLINK-4010","line1":"1 52862U 22062AJ  26087.88337126  .00000268  00000+0  34957-4 0  9993","line2":"2 52862  53.2180 297.9576 0001362  87.5250 272.5899 15.08834966208820","category":"Starlink"}]}